GLOBALSTAR M063         
1 26081U 00008A   24250.20374030 -.00000174  00000+0 -13404-2 0  9994
2 26081  51.9942 139.4763 0004794 119.5561  55.7265 11.86157492123879
GLOBALSTAR M062         
1 26082U 00008B   24250.31107047 -.00000077  00000+0  15458-3 0  9992
2 26082  51.9825 210.5634 0006711 227.2154 280.7642 12.43444723461306
GLOBALSTAR M060         
1 26083U 00008C   24250.06143431  .00000043  00000+0  13353-2 0  9995
2 26083  52.0015 131.1100 0002709 276.6935 230.9850 12.17640630117755
GLOBALSTAR M064         
1 26084U 00008D   24250.39049983 -.00000066  00000+0  24133-3 0  9994
2 26084  52.0001 241.1595 0001316 233.5826 126.4885 11.88522517133356
GLOBALSTAR M065         
1 31571U 07020A   24250.53119196 -.00000114  00000+0 -59746-4 0  9996
2 31571  51.9923   9.6066 0010324  42.0990  39.2724 12.61973728797599
GLOBALSTAR M069         
1 31573U 07020C   24249.56264580 -.00000041  00000+0  35067-3 0  9994
2 31573  51.9972 328.2853 0000498 157.4334 310.4878 12.62247938798608
GLOBALSTAR M072         
1 31574U 07020D   24250.49264191 -.00000081  00000+0  12820-3 0  9993
2 31574  52.0089  61.4609 0001214  88.8544 306.5832 12.62263111796999
GLOBALSTAR M071         
1 31576U 07020F   24250.53777382 -.00000015  00000+0  49494-3 0  9995
2 31576  52.0091 330.5420 0000930 188.8057 274.4591 12.62287455459919
